NORAD_CAT_ID,OBJECT_NAME,OBJECT_TYPE,EPOCH,MEAN_MOTION,ECCENTRICITY,INCLINATION,RA_OF_ASC_NODE,ARG_OF_PERICENTER,MEAN_ANOMALY,BSTAR,MEAN_MOTION_DOT,MEAN_MOTION_DDOT,TLE_LINE0,TLE_LINE1,TLE_LINE2,SEMIMAJOR_AXIS,PERIOD,APOGEE,PERIGEE,DECAYED
52272.0,STARLINK-3781,PAYLOAD,2022-06-09 22:00:00,15.36309827,0.0001638,53.2176,135.4784,42.1076,267.2586,-0.021567,-0.00715709,0.0,0 STARLINK-3781,1 52272U 22041M   22160.91667824 -.00715709  00000-0 -21567-1 0  9994,2 52272  53.2176 135.4784 0001638  42.1076 267.2586 15.36309827  1308,6835.17,93.731,458.154,455.915,0.0
52272.0,STARLINK-3781,PAYLOAD,2022-06-10 06:00:02,15.35802464,0.00019,53.2175,133.9203,31.5326,322.1878,-0.022091,-0.00720799,0.0,0 STARLINK-3781,1 52272U 22041M   22161.25002315 -.00720799  00000-0 -22091-1 0  9998,2 52272  53.2175 133.9203 0001900  31.5326 322.1878 15.35802464  8977,6836.675,93.762,459.839,457.241,0.0
52272.0,STARLINK-3781,PAYLOAD,2022-06-10 14:00:01,15.35291806,0.0001592,53.2175,132.3609,38.2277,359.1092,-0.02242,-0.00719642,0.0,0 STARLINK-3781,1 52272U 22041M   22161.58334491 -.00719642  00000-0 -22420-1 0  9998,2 52272  53.2175 132.3609 0001592  38.2277 359.1092 15.35291806  1306,6838.191,93.793,461.145,458.967,0.0
52272.0,STARLINK-3781,PAYLOAD,2022-06-10 22:00:00,15.34779842,0.0001788,53.2175,130.8026,34.7757,45.6287,-0.02266,-0.00715824,0.0,0 STARLINK-3781,1 52272U 22041M   22161.91667824 -.00715824  00000-0 -22660-1 0  9998,2 52272  53.2175 130.8026 0001788  34.7757  45.6287 15.34779842  1306,6839.712,93.825,462.799,460.354,0.0
52272.0,STARLINK-3781,PAYLOAD,2022-06-11 14:00:01,15.33761946,0.0001724,53.2174,127.6924,43.5766,121.1216,-0.023534,-0.00719343,0.0,0 STARLINK-3781,1 52272U 22041M   22162.58334491 -.00719343  00000-0 -23534-1 0  9994,2 52272  53.2174 127.6924 0001724  43.5766 121.1216 15.33761946  9185,6842.736999999999,93.887,465.782,463.423,0.0
52272.0,STARLINK-3781,PAYLOAD,2022-06-11 22:00:00,15.33250931,0.000183,53.2176,126.1382,41.5527,164.3741,-0.023827,-0.00716783,0.0,0 STARLINK-3781,1 52272U 22041M   22162.91667824 -.00716783  00000-0 -23827-1 0  9990,2 52272  53.2176 126.1382 0001830  41.5527 164.3741 15.33250931  1305,6844.2580000000025,93.918,467.375,464.87,0.0
52272.0,STARLINK-3781,PAYLOAD,2022-06-12 14:00:01,15.32233241,0.0001606,53.2174,123.0348,45.2963,241.248,-0.024789,-0.00721654,0.0,0 STARLINK-3781,1 52272U 22041M   22163.58334491 -.00721654  00000-0 -24789-1 0  9996,2 52272  53.2174 123.0348 0001606  45.2963 241.2480 15.32233241  1306,6847.288000000001,93.98,470.253,468.05300000000005,0.0
52272.0,STARLINK-3781,PAYLOAD,2022-06-12 22:00:00,15.31720887,0.0001685,53.2177,121.4843,40.2832,285.6517,-0.024997,-0.00716495,0.0,0 STARLINK-3781,1 52272U 22041M   22163.91667824 -.00716495  00000-0 -24997-1 0  9990,2 52272  53.2177 121.4843 0001685  40.2832 285.6517 15.31720887  9383,6848.815,94.012,471.834,469.526,0.0
52272.0,STARLINK-3781,PAYLOAD,2022-06-13 14:00:01,15.30701693,0.000152,53.2175,118.3882,42.8393,0.0369,-0.025902,-0.00718874,0.0,0 STARLINK-3781,1 52272U 22041M   22164.58334491 -.00718874  00000-0 -25902-1 0  9995,2 52272  53.2175 118.3882 0001520  42.8393   0.0369 15.30701693  1308,6851.855,94.075,474.761,472.67800000000005,0.0
52272.0,STARLINK-3781,PAYLOAD,2022-06-13 22:00:00,15.30190154,0.0001793,53.2176,116.8414,35.7255,44.7028,-0.026192,-0.00715715,0.0,0 STARLINK-3781,1 52272U 22041M   22164.91667824 -.00715715  00000-0 -26192-1 0  9994,2 52272  53.2176 116.8414 0001793  35.7255  44.7028 15.30190154  9548,6853.380999999999,94.106,476.475,474.018,0.0
52272.0,STARLINK-3781,PAYLOAD,2022-06-14 14:00:01,15.29171145,0.0001945,53.2174,113.7524,35.701,117.9914,-0.027091,-0.00717135,0.0,0 STARLINK-3781,1 52272U 22041M   22165.58334491 -.00717135  00000-0 -27091-1 0  9996,2 52272  53.2174 113.7524 0001945  35.7010 117.9914 15.29171145  1302,6856.426,94.169,479.624,476.957,0.0
52272.0,STARLINK-3781,PAYLOAD,2022-06-14 22:00:00,15.28659965,0.0001832,53.2177,112.2095,42.3265,147.0794,-0.027433,-0.0071497,0.0,0 STARLINK-3781,1 52272U 22041M   22165.91667824 -.00714970  00000-0 -27433-1 0  9996,2 52272  53.2177 112.2095 0001832  42.3265 147.0794 15.28659965  9693,6857.954000000002,94.2,481.076,478.56300000000016,0.0
52272.0,STARLINK-3781,PAYLOAD,2022-06-15 14:00:01,15.27642314,0.0001649,53.2175,109.1273,47.0686,211.9245,-0.028473,-0.00727231,0.0,0 STARLINK-3781,1 52272U 22041M   22166.58334491 -.00727231  00000-0 -28473-1 0  9990,2 52272  53.2175 109.1273 0001649  47.0686 211.9245 15.27642314  1300,6861.0,94.263,483.996,481.733,0.0
52272.0,STARLINK-3781,PAYLOAD,2022-06-15 22:00:00,15.27131,0.0001619,53.2176,107.588,46.3219,246.5463,-0.028805,-0.00724485,0.0,0 STARLINK-3781,1 52272U 22041M   22166.91667824 -.00724485  00000-0 -28805-1 0  9993,2 52272  53.2176 107.5880 0001619  46.3219 246.5463 15.27131000  9846,6862.531,94.294,485.507,483.285,0.0
52272.0,STARLINK-3781,PAYLOAD,2022-06-16 02:00:01,15.26876841,0.0001774,53.2173,106.8198,43.5854,85.9895,-0.029101,-0.00726176,0.0,0 STARLINK-3781,1 52272U 22041M   22167.08334491 -.00726176  00000-0 -29101-1 0  9992,2 52272  53.2173 106.8198 0001774  43.5854  85.9895 15.26876841  1308,6863.292,94.31,486.375,483.94,0.0
52272.0,STARLINK-3781,PAYLOAD,2022-06-19 14:00:01,15.21519273,0.0001515,53.2175,90.7351,54.7714,210.2763,-0.033922,-0.00721103,0.0,0 STARLINK-3781,1 52272U 22041M   22170.58334491 -.00721103  00000-0 -33922-1 0  9992,2 52272  53.2175  90.7351 0001515  54.7714 210.2763 15.21519273  1309,6879.394,94.642,502.302,500.217,0.0
52272.0,STARLINK-3781,PAYLOAD,2022-06-19 22:00:00,15.21010318,0.0001585,53.2175,89.2109,50.8101,240.7579,-0.034517,-0.00722714,0.0,0 STARLINK-3781,1 52272U 22041M   22170.91667824 -.00722714  00000-0 -34517-1 0  9998,2 52272  53.2175  89.2109 0001585  50.8101 240.7579 15.21010318  1306,6880.929,94.674,503.884,501.703,0.0
52272.0,STARLINK-3781,PAYLOAD,2022-06-20 14:00:01,15.19988712,0.0001456,53.2174,86.164,49.4294,293.3441,-0.035442,-0.0072031,0.0,0 STARLINK-3781,1 52272U 22041M   22171.58334491 -.00720310  00000-0 -35442-1 0  9991,2 52272  53.2174  86.1640 0001456  49.4294 293.3441 15.19988712  1306,6884.012,94.738,506.879,504.874,0.0
52272.0,STARLINK-3781,PAYLOAD,2022-06-20 22:00:00,15.19481185,0.0001689,53.2177,84.6435,40.1056,327.3492,-0.036172,-0.00724078,0.0,0 STARLINK-3781,1 52272U 22041M   22171.91667824 -.00724078  00000-0 -36172-1 0  9993,2 52272  53.2177  84.6435 0001689  40.1056 327.3492 15.19481185 10605,6885.545,94.769,508.572,506.247,0.0
52272.0,STARLINK-3781,PAYLOAD,2022-06-21 14:00:01,15.18458812,0.0001499,53.2174,81.6035,45.8533,9.1308,-0.037068,-0.00720495,0.0,0 STARLINK-3781,1 52272U 22041M   22172.58334491 -.00720495  00000-0 -37068-1 0  9992,2 52272  53.2174  81.6035 0001499  45.8533   9.1308 15.18458812  1304,6888.635,94.833,511.532,509.467,0.0
52272.0,STARLINK-3781,PAYLOAD,2022-06-21 22:00:00,15.17950938,0.0001614,53.2176,80.0869,45.4889,32.3381,-0.037801,-0.00723786,0.0,0 STARLINK-3781,1 52272U 22041M   22172.91667824 -.00723786  00000-0 -37801-1 0  9999,2 52272  53.2176  80.0869 0001614  45.4889  32.3381 15.17950938  1307,6890.170999999999,94.865,513.148,510.924,0.0
52272.0,STARLINK-3781,PAYLOAD,2022-06-22 06:00:00,15.17439892,0.000147,53.2172,78.5709,53.9591,46.0995,-0.038197,-0.00720843,0.0,0 STARLINK-3781,1 52272U 22041M   22173.25001157 -.00720843  00000-0 -38197-1 0  9998,2 52272  53.2172  78.5709 0001470  53.9591  46.0995 15.17439892 10812,6891.718000000003,94.897,514.596,512.57,0.0
52272.0,STARLINK-3781,PAYLOAD,2022-06-22 14:00:01,15.16929847,0.0001545,53.2174,77.0538,50.5088,71.1702,-0.038835,-0.0072211,0.0,0 STARLINK-3781,1 52272U 22041M   22173.58334491 -.00722110  00000-0 -38835-1 0  9992,2 52272  53.2174  77.0538 0001545  50.5088  71.1702 15.16929847  1307,6893.263000000001,94.929,516.193,514.063,0.0
52272.0,STARLINK-3781,PAYLOAD,2022-06-22 22:00:00,15.16419748,0.0001643,53.2175,75.5408,50.1547,92.5299,-0.03939,-0.00721808,0.0,0 STARLINK-3781,1 52272U 22041M   22173.91667824 -.00721808  00000-0 -39390-1 0  9998,2 52272  53.2175  75.5408 0001643  50.1547  92.5299 15.16419748  1304,6894.809,94.961,517.807,515.5409999999998,0.0
52272.0,STARLINK-3781,PAYLOAD,2022-06-23 06:00:00,15.15910332,0.00016,53.2172,74.0282,53.9331,109.1441,-0.039962,-0.00721686,0.0,0 STARLINK-3781,1 52272U 22041M   22174.25001157 -.00721686  00000-0 -39962-1 0  9996,2 52272  53.2172  74.0282 0001600  53.9331 109.1441 15.15910332 10960,6896.353,94.992,519.322,517.115,0.0
52272.0,STARLINK-3781,PAYLOAD,2022-06-23 14:00:01,15.15400439,0.0001661,53.2173,72.5147,50.0597,132.7994,-0.040625,-0.00722966,0.0,0 STARLINK-3781,1 52272U 22041M   22174.58334491 -.00722966  00000-0 -40625-1 0  9992,2 52272  53.2173  72.5147 0001661  50.0597 132.7994 15.15400439  1308,6897.9,95.024,520.911,518.619,0.0
52272.0,STARLINK-3781,PAYLOAD,2022-06-23 22:00:00,15.148887300000002,0.0001857,53.2175,71.0054,44.2879,157.7388,-0.041028,-0.00719822,0.0,0 STARLINK-3781,1 52272U 22041M   22174.91667824 -.00719822  00000-0 -41028-1 0  9993,2 52272  53.2175  71.0054 0001857  44.2879 157.7388 15.14888730  1303,6899.453,95.056,522.6,520.0369999999998,0.0
52272.0,STARLINK-3781,PAYLOAD,2022-06-24 06:00:02,15.14381519,0.0001508,53.2172,69.4962,62.6206,158.0231,-0.041878,-0.0072388999999999,0.0,0 STARLINK-3781,1 52272U 22041M   22175.25002315 -.00723890  00000-0 -41878-1 0  9992,2 52272  53.2172  69.4962 0001508  62.6206 158.0231 15.14381519 11114,6900.994000000002,95.088,523.9,521.818,0.0
52272.0,STARLINK-3781,PAYLOAD,2022-06-24 14:00:01,15.13870107,0.0001587,53.2173,67.9862,54.9436,183.5809,-0.042388,-0.00722294,0.0,0 STARLINK-3781,1 52272U 22041M   22175.58334491 -.00722294  00000-0 -42388-1 0  9995,2 52272  53.2173  67.9862 0001587  54.9436 183.5809 15.13870107  1302,6902.5480000000025,95.12,525.508,523.318,0.0
